ONEWEB-0230             
1 48769U 21045C   24090.44718166  .00000258  00000+0  65208-3 0  9996
2 48769  87.8996  60.1946 0001940  78.5992 281.5356 13.15548391138331
ONEWEB-0237             
1 48770U 21045D   24090.43608670  .00000237  00000+0  59522-3 0  9994
2 48770  87.9001  60.1233 0001490  76.2295 283.9001 13.15548622138050
ONEWEB-0235             
1 48771U 21045E   24090.41073183  .00000003  00000+0 -26049-4 0  9999
2 48771  87.8992  60.1449 0001301  63.5905 296.5359 13.15549363138044
ONEWEB-0242             
1 48772U 21045F   24090.48044104 -.00000056  00000+0 -18385-3 0  9990
2 48772  87.8993  60.1199 0001808  76.8836 283.2496 13.15549033138094
ONEWEB-0241             
1 48773U 21045G   24090.46776810  .00000000  00000+0 -32836-4 0  9991
2 48773  87.9003  60.1618 0001452  90.3399 269.7898 13.15548327138005
ONEWEB-0243             
1 48774U 21045H   24090.42340346  .00000103  00000+0  23971-3 0  9991
2 48774  87.9001  60.1291 0001365  78.2239 281.9044 13.15549936138020
ONEWEB-0222             
1 48775U 21045J   24090.40677762 -.00000042  00000+0 -14622-3 0  9992
2 48775  87.8991  60.1448 0001597  84.3720 275.7593 13.15549753138063
ONEWEB-0244             
1 48776U 21045K   24090.43291807  .00000205  00000+0  50942-3 0  9992
2 48776  87.8988  60.1233 0001874  75.4444 284.6894 13.15548517138637
